JY1SAT (JO-97)          
1 43803U 18099AX  26068.68634132  .00017774  00000+0  60804-3 0  9996
2 43803  97.4249 131.3625 0004723 256.6795 103.3919 15.30302628398390
STARLINK-35877          
1 67049U 25294V   26068.28054183  .00024984  00000+0  91412-3 0  9997
2 67049  43.0030  40.6399 0001878 255.1594 104.9050 15.27588364 14737
